satname,norad_id,inclination_deg,eccentricity,mean_motion_rev_per_day,perigee_km,apogee_km,l1,l2
STARLINK-1206,45204,53.0387,0.0003378,15.93695911,289.6974151629556,294.2037263257507,1 45204U 20012AC  25251.58337963  .00231759  31666-4  63250-3 0  9991,2 45204  53.0387  77.0055 0003378 107.2456 266.4258 15.93695911  5909
STARLINK-1208,45205,53.039,0.0005586,15.89137558,300.9666323391584,308.43269746118403,1 45205U 20012AD  25251.58337963  .00303419  00000+0  99966-3 0  9991,2 45205  53.0390  77.8707 0005586 103.1688 110.1097 15.89137558  5944
STARLINK-1209,45206,53.0531,0.0001462,15.06414322,546.155183877002,548.1801429605857,1 45206U 20012AE  25251.28965555  .00002307  00000+0  17363-3 0  9996,2 45206  53.0531 105.4478 0001462  91.6162 268.4994 15.06414322306956
STARLINK-1210,45207,53.0298,0.0009268,15.43886813,428.3368251544225,440.96500883736644,1 45207U 20012AF  25251.24476346  .00117581  00000+0  25162-2 0  9994,2 45207  53.0298  82.0945 0009268 185.9498 174.1399 15.43886813308231
STARLINK-1231,45212,53.0528,0.0003778,15.08303544,538.7694114399337,543.9978012100728,1 45212U 20012AL  25251.36168649  .00023298  00000+0  14986-2 0  9990,2 45212  53.0528 124.8537 0003778 123.2310 236.9043 15.08303544307590
STARLINK-1271,45217,53.0541,0.000148,15.06419727,546.126155545745,548.1760408228083,1 45217U 20012AR  25251.06665101  .00006961  00000+0  48550-3 0  9990,2 45217  53.0541 126.4451 0001480  95.8702 264.2456 15.06419727307591
STARLINK-1191,45222,53.0535,0.0001372,15.06421607,546.1951876502417,548.0954851233464,1 45222U 20012AW  25251.00951998  .00005676  00000+0  39938-3 0  9994,2 45222  53.0535 106.7012 0001372  85.0970 275.0176 15.06421607307861
STARLINK-1212,45223,53.0533,0.0001471,15.06404445,546.179217918082,548.2166514558658,1 45223U 20012AX  25251.29342596  .00000825  00000+0  74276-4 0  9990,2 45223  53.0533 106.0831 0001471  88.0868 272.0290 15.06404445307901
STARLINK-1215,45225,53.0527,6.45e-05,15.06368814,546.8604490386097,547.7538313326932,1 45225U 20012AZ  25251.31546918 -.00004386  00000+0 -27599-3 0  9992,2 45225  53.0527 105.3280 0000645 114.2078 245.8978 15.06368814307868
STARLINK-1217,45226,53.046,0.0005694,15.81171654,323.3081950772021,330.9441487773938,1 45226U 20012BA  25251.58337963  .00189972  00000+0  93124-3 0  9990,2 45226  53.0460  62.1911 0005694 129.6139 167.0171 15.81171654  6035
STARLINK-1221,45227,53.0684,0.0004977,15.3472485,458.33368212780897,465.1420935911847,1 45227U 20012BB  25251.60396647  .00013572  00000+0  40779-3 0  9998,2 45227  53.0684  47.6802 0004977 143.6885 216.4455 15.34724850308688
STARLINK-1222,45228,53.053,0.0001535,15.0640606,546.1299468206471,548.2560231260331,1 45228U 20012BC  25251.01689775 -.00000326  00000+0 -30148-5 0  9997,2 45228  53.0530 106.6672 0001535  94.5348 265.5816 15.06406060307757
STARLINK-1226,45229,53.0532,0.0002164,15.06412975,545.6731548949238,548.6704285399783,1 45229U 20012BD  25251.31177124  .00004759  00000+0  33803-3 0  9992,2 45229  53.0532 105.3440 0002164  82.1600 277.9634 15.06412975307805
STARLINK-1227,45230,53.0524,0.0001247,15.06408557,546.3217443950452,548.0489197846673,1 45230U 20012BE  25251.30810039  .00005709  00000+0  40172-3 0  9995,2 45230  53.0524 105.3599 0001247  93.0731 267.0401 15.06408557307926
STARLINK-1238,45233,53.0382,0.0004446,15.88548581,303.37947718444684,309.32332427037454,1 45233U 20012BH  25251.58337963  .00325637  00000+0  11024-2 0  9996,2 45233  53.0382  79.0472 0004446 105.1843  36.2628 15.88548581  5891
STARLINK-1246,45235,53.0542,0.0001464,15.06417475,546.144136909872,548.171863285901,1 45235U 20012BK  25251.12378720  .00005401  00000+0  38101-3 0  9994,2 45235  53.0542 146.1881 0001464  98.4618 261.6537 15.06417475307347
STARLINK-1247,45236,53.0413,0.0003579,15.87984792,305.5405107531333,310.326399985086,1 45236U 20012BL  25251.58337963  .00290552  00000+0  10160-2 0  9996,2 45236  53.0413  58.9286 0003579 120.0953  55.3583 15.87984792  5992
STARLINK-1270,45237,53.0533,0.0001209,15.06394513,546.3910981802301,548.0656515278688,1 45237U 20012BM  25251.32652640  .00004536  00000+0  32325-3 0  9994,2 45237  53.0533 105.2789 0001209  90.1305 269.9823 15.06394513307910
STARLINK-1279,45360,53.0541,0.0001482,15.06399867,546.1856288474546,548.2383022808481,1 45360U 20019A   25251.35138774  .00001099  00000+0  92648-4 0  9994,2 45360  53.0541 235.1657 0001482  86.8287 273.2871 15.06399867302651
STARLINK-1301,45361,53.0544,0.0001266,15.06409437,546.3058895776503,548.059380509243,1 45361U 20019B   25251.40575128  .00000892  00000+0  78743-4 0  9999,2 45361  53.0544 244.9236 0001266  79.2918 280.8214 15.06409437302530
STARLINK-1306,45362,53.0512,0.0007621,15.5269583,403.6864792907618,414.0312183635433,1 45362U 20019C   25251.58337963  .00129995  00000+0  20428-2 0  9993,2 45362  53.0512 251.8662 0007621  20.9783 103.7441 15.52695830  5912
STARLINK-1262,45366,53.0546,0.000126,15.06395645,546.3523098181167,548.0975010182829,1 45366U 20019G   25251.30440278  .00000765  00000+0  70248-4 0  9991,2 45366  53.0546 265.3762 0001260  90.2419 269.8714 15.06395645302246
STARLINK-1273,45367,53.0521,0.00013,15.0640811,546.2864099865774,548.0869941491137,1 45367U 20019H   25251.45920818  .00003804  00000+0  27409-3 0  9998,2 45367  53.0521 264.6875 0001300  84.7881 275.3257 15.06408110302261
STARLINK-1276,45368,53.0547,0.00013,15.06401126,546.3078120487025,548.1084017764988,1 45368U 20019J   25251.42971454  .00001041  00000+0  88785-4 0  9994,2 45368  53.0547 264.8172 0001300  88.5247 271.5891 15.06401126302262
STARLINK-1277,45369,53.0518,0.000134,15.06389199,546.3166605027845,548.1726627881053,1 45369U 20019K   25251.42242852 -.00008924  00000+0 -58114-3 0  9999,2 45369  53.0518 265.4781 0001340  78.0870 282.0269 15.06389199302254
STARLINK-1281,45370,53.055,0.0001466,15.06390561,546.2252269252376,548.255747604504,1 45370U 20019L   25251.35232788  .00000682  00000+0  64716-4 0  9997,2 45370  53.0550 265.1647 0001466  93.1457 266.9700 15.06390561302254
STARLINK-1300,45374,53.0546,0.000138,15.06397734,546.2628038512175,548.1742019700214,1 45374U 20019Q   25251.30808690  .00000808  00000+0  73139-4 0  9996,2 45374  53.0546 265.3609 0001380  91.0361 269.0787 15.06397734302246
STARLINK-1302,45375,53.0531,0.0001257,15.06400047,546.3408975944249,548.0819301856754,1 45375U 20019R   25251.45553342  .00002895  00000+0  21314-3 0  9999,2 45375  53.0531 264.7028 0001257  78.1465 281.9665 15.06400047302265
STARLINK-1304,45376,53.0525,0.0001194,15.06409181,546.35653638039,548.0103028966005,1 45376U 20019S   25251.47395948  .00001620  00000+0  12761-3 0  9999,2 45376  53.0525 264.6213 0001194  76.0887 284.0234 15.06409181302263
STARLINK-1305,45377,53.0528,0.0001512,15.06398174,546.170040822798,548.2642679190794,1 45377U 20019T   25251.43340980  .00004102  00000+0  29414-3 0  9993,2 45377  53.0528 264.7983 0001512  79.9762 280.1397 15.06398174302266
STARLINK-1319,45379,53.0535,0.0001463,15.06385304,546.2434143442451,548.269784511438,1 45379U 20019V   25251.35969973  .00003439  00000+0  24975-3 0  9994,2 45379  53.0535 265.1328 0001463  89.4594 270.6562 15.06385304302256
STARLINK-1258,45381,53.0448,0.000824,15.92364612,290.1685294385861,301.1669596576012,1 45381U 20019X   25251.58337963  .00298512  44835-4  86865-3 0  9993,2 45381  53.0448 197.0772 0008240  91.7028 314.0420 15.92364612  6055
STARLINK-1266,45383,53.0535,0.0001446,15.06387656,546.247979906655,548.2508016508691,1 45383U 20019Z   25251.36155115  .00000348  00000+0  42288-4 0  9999,2 45383  53.0535 245.1231 0001446  86.8389 273.2765 15.06387656302522
STARLINK-1267,45384,53.0544,0.0001415,15.06402588,546.22369040378,548.1835618009663,1 45384U 20019AA  25251.21416834  .00000574  00000+0  57423-4 0  9990,2 45384  53.0544 246.4408 0001415  92.5980 267.5171 15.06402588302495
STARLINK-1272,45386,53.0544,0.0001342,15.06398695,546.2861752649842,548.1449398914374,1 45386U 20019AC  25251.28781066  .00000101  00000+0  25657-4 0  9991,2 45386  53.0544 245.4547 0001342  87.5906 272.5237 15.06398695302516
STARLINK-1274,45387,53.0418,0.0007299,15.2359752,489.9833388319157,500.01674428518345,1 45387U 20019AD  25251.34951006  .00054670  00000+0  22506-2 0  9990,2 45387  53.0418 237.9032 0007299  18.3975 341.7284 15.23597520302627
STARLINK-1280,45388,53.0543,0.0001349,15.06404126,546.2646845568142,548.1331401859725,1 45388U 20019AE  25251.34493787  .00000498  00000+0  52331-4 0  9998,2 45388  53.0543 265.1994 0001349  89.7771 270.3372 15.06404126302235
STARLINK-1283,45389,53.0545,0.0001258,15.06403302,546.3302302268621,548.0726453778134,1 45389U 20019AF  25251.39101579  .00001760  00000+0  13699-3 0  9995,2 45389  53.0545 244.9894 0001258  83.5602 276.5530 15.06403302302538
STARLINK-1284,45390,53.0544,0.0001271,15.06401162,546.3277852288593,548.0882079269904,1 45390U 20019AG  25251.36521293  .00001921  00000+0  14783-3 0  9997,2 45390  53.0544 245.1067 0001271  87.9399 272.1735 15.06401162302520
STARLINK-1292,45394,53.0512,0.0003722,15.68448278,360.8305583665151,365.8489136487997,1 45394U 20019AL  25251.58337963  .00143295  00000+0  12291-2 0  9996,2 45394  53.0512 222.1320 0003722  88.3628 347.3781 15.68448278  5780
STARLINK-1297,45395,53.0546,0.0001204,15.0642334,546.3062217696297,547.9738284772784,1 45395U 20019AM  25251.40204776  .00002541  00000+0  18927-3 0  9994,2 45395  53.0546 244.9395 0001204  96.2762 263.8364 15.06423340301718
STARLINK-1307,45397,53.0533,0.000134,15.06398575,546.2879280694842,548.1439226534822,1 45397U 20019AP  25251.26202302  .00003373  00000+0  24523-3 0  9996,2 45397  53.0533 245.5676 0001340  84.4300 275.6842 15.06398575302335
STARLINK-1312,45398,53.0511,0.0011774,15.65968208,362.5098491632307,378.4014351169426,1 45398U 20019AQ  25251.58337963  .00144229  00000+0  13636-2 0  9992,2 45398  53.0511 221.3434 0011774  28.9932  12.1460 15.65968208  5939
